     2.10           G: GLONASS NAV DATA                     RINEX VERSION / TYPE
teqc  2015Jun23                         20211103 01:25:47UTCPGM / RUN BY / DATE
Linux 2.4.21-27.ELsmp|Opteron|gcc -static|Linux x86_64|=+   COMMENT
  2021    10    10    2.328306436539D-09                    CORR TO SYSTEM TIME
                                                            END OF HEADER
 8 21 10 11 13 45  0.0-6.141699850559D-05-0.000000000000D+00 4.860000000000D+04
   -5.879256347656D+03-1.091070175171D-01 1.862645149231D-09 0.000000000000D+00
    1.872765917969D+04-2.233222007751D+00 0.000000000000D+00 6.000000000000D+00
   -1.622670214844D+04-2.532805442810D+00 9.313225746155D-10 0.000000000000D+00
 2 21 10 11 13 45  0.0 4.962859675288D-04 9.094947017729D-13 4.860000000000D+04
    9.548377441406D+03 3.317651748657D-01 0.000000000000D+00 0.000000000000D+00
    1.661055615234D+04 2.280236244202D+00-0.000000000000D+00-4.000000000000D+00
    1.683788867188D+04-2.448363304138D+00-2.793967723846D-09 0.000000000000D+00
 1 21 10 11 13 45  0.0 8.652731776237D-05 0.000000000000D+00 4.860000000000D+04
    2.041137695312D+03 1.064958572388D-01 1.862645149231D-09 0.000000000000D+00
    2.533492675781D+04-3.191833496094D-01 0.000000000000D+00 1.000000000000D+00
   -2.226014648438D+03-3.544015884399D+00-9.313225746155D-10 0.000000000000D+00
12 21 10 11 13 45  0.0 2.691904082894D-04 3.637978807092D-12 4.860000000000D+04
    7.875552734375D+03-2.454581260681D+00-0.000000000000D+00 0.000000000000D+00
    1.388807421875D+04-1.174704551697D+00-9.313225746155D-10-1.000000000000D+00
    1.991901318359D+04 1.794007301331D+00-2.793967723846D-09 0.000000000000D+00
21 21 10 11 13 45  0.0-2.459548413754D-04-2.728484105319D-12 4.860000000000D+04
   -2.129047607422D+04 1.319939613342D+00-1.862645149231D-09 0.000000000000D+00
    9.168499023438D+03-6.697530746460D-01-1.862645149231D-09 4.000000000000D+00
    1.068832714844D+04 3.200307846069D+00 0.000000000000D+00 0.000000000000D+00
22 21 10 11 13 45  0.0-1.382799819112D-04-2.728484105319D-12 4.860000000000D+04
   -1.875149072266D+04-5.226211547852D-01-0.000000000000D+00 0.000000000000D+00
    1.621134863281D+04 6.524171829224D-01-9.313225746155D-10-3.000000000000D+00
   -5.845192382812D+03 3.501373291016D+00 9.313225746155D-10 0.000000000000D+00
23 21 10 11 13 45  0.0-1.617893576622D-05-9.094947017729D-13 4.860000000000D+04
   -2.166625976562D+03-2.384955406189D+00 2.793967723846D-09 0.000000000000D+00
    1.328758691406D+04 1.773841857910D+00 9.313225746155D-10 3.000000000000D+00
   -2.167423779297D+04 1.325349807739D+00 9.313225746155D-10 0.000000000000D+00
 8 21 10 11 14 15  0.0-6.141886115074D-05-0.000000000000D+00 5.040000000000D+04
   -6.462918945312D+03-5.569629669189D-01 1.862645149231D-09 0.000000000000D+00
    1.423933789062D+04-2.708800315857D+00 0.000000000000D+00 6.000000000000D+00
   -2.009617626953D+04-1.738502502441D+00 1.862645149231D-09 0.000000000000D+00
12 21 10 11 14 15  0.0 2.691969275475D-04 3.637978807092D-12 5.040000000000D+04
    3.007050781250D+03-2.915391921997D+00-9.313225746155D-10 0.000000000000D+00
    1.199552050781D+04-8.972406387329D-01-9.313225746155D-10-1.000000000000D+00
    2.233863427734D+04 8.771619796753D-01-1.862645149231D-09 0.000000000000D+00
 2 21 10 11 14 15  0.0 4.962878301740D-04 9.094947017729D-13 5.040000000000D+04
    1.033303222656D+04 5.032281875610D-01 9.313225746155D-10 0.000000000000D+00
    2.007687207031D+04 1.543980598450D+00-0.000000000000D+00-4.000000000000D+00
    1.183645996094D+04-3.072827339172D+00-2.793967723846D-09 0.000000000000D+00
 1 21 10 11 14 15  0.0 8.652824908495D-05 0.000000000000D+00 5.040000000000D+04
    2.026931640625D+03-1.586942672729D-01 1.862645149231D-09 0.000000000000D+00
    2.399475195312D+04-1.150700569153D+00-0.000000000000D+00 1.000000000000D+00
   -8.436875488281D+03-3.312165260315D+00-0.000000000000D+00 0.000000000000D+00
21 21 10 11 14 15  0.0-2.459594979882D-04-2.728484105319D-12 5.040000000000D+04
   -1.850880517578D+04 1.725116729736D+00-2.793967723846D-09 0.000000000000D+00
    7.351978515625D+03-1.356216430664D+00-1.862645149231D-09 4.000000000000D+00
    1.596219580078D+04 2.621540069580D+00 0.000000000000D+00 0.000000000000D+00
22 21 10 11 14 15  0.0-1.382846385241D-04-2.728484105319D-12 5.040000000000D+04
   -1.899755712891D+04 2.274894714355D-01-9.313225746155D-10 0.000000000000D+00
    1.694348193359D+04 1.239261627197D-01-9.313225746155D-10-3.000000000000D+00
    6.025590820312D+02 3.616040229797D+00 9.313225746155D-10 0.000000000000D+00
23 21 10 11 14 15  0.0-1.618079841137D-05-9.094947017729D-13 5.040000000000D+04
   -5.925193847656D+03-1.768078804016D+00 1.862645149231D-09 0.000000000000D+00
    1.656349707031D+04 1.820587158203D+00 0.000000000000D+00 3.000000000000D+00
   -1.848233447266D+04 2.198207855225D+00 9.313225746155D-10 0.000000000000D+00
 8 21 10 11 14 45  0.0-6.141979247332D-05-0.000000000000D+00 5.220000000000D+04
   -7.916489257812D+03-1.058017730713D+00 1.862645149231D-09 0.000000000000D+00
    9.151150878906D+03-2.893958091736D+00 0.000000000000D+00 6.000000000000D+00
   -2.240394189453D+04-8.089447021484D-01 1.862645149231D-09 0.000000000000D+00
 2 21 10 11 14 45  0.0 4.962896928191D-04 9.094947017729D-13 5.220000000000D+04
    1.121511621094D+04 4.346923828125D-01 9.313225746155D-10 0.000000000000D+00
    2.210335888672D+04 6.990318298340D-01-0.000000000000D+00-4.000000000000D+00
    5.918410644531D+03-3.460073471069D+00-2.793967723846D-09 0.000000000000D+00
22 21 10 11 14 45  0.0-1.382902264595D-04-2.728484105319D-12 5.220000000000D+04
   -1.803953857422D+04 8.003597259521D-01-1.862645149231D-09 0.000000000000D+00
    1.654729736328D+04-5.870475769043D-01-9.313225746155D-10-3.000000000000D+00
    7.003440429688D+03 3.449605941772D+00 9.313225746155D-10 0.000000000000D+00
 1 21 10 11 14 45  0.0 8.652918040752D-05 0.000000000000D+00 5.220000000000D+04
    1.356202148438D+03-6.120586395264D-01 2.793967723846D-09 0.000000000000D+00
    2.129178906250D+04-1.817488670349D+00-0.000000000000D+00 1.000000000000D+00
   -1.399590136719D+04-2.824468612671D+00 0.000000000000D+00 0.000000000000D+00
23 21 10 11 14 45  0.0-1.618359237909D-05-9.094947017729D-13 5.220000000000D+04
   -8.482374023438D+03-1.069281578064D+00 9.313225746155D-10 0.000000000000D+00
    1.967036181641D+04 1.583353042603D+00-0.000000000000D+00 3.000000000000D+00
   -1.386279248047D+04 2.901331901550D+00 9.313225746155D-10 0.000000000000D+00
12 21 10 11 14 45  0.0 2.692043781281D-04 3.637978807092D-12 5.226000000000D+04
   -2.458277832031D+03-3.108249664307D+00-1.862645149231D-09 0.000000000000D+00
    1.074294042969D+04-4.790029525757D-01-9.313225746155D-10-1.000000000000D+00
    2.303646240234D+04-1.067428588867D-01-1.862645149231D-09 0.000000000000D+00
24 21 10 11 14 45  0.0 6.226357072592D-05 1.818989403546D-12 5.256000000000D+04
    3.053606933594D+03-1.915319442749D+00 2.793967723846D-09 0.000000000000D+00
    1.237745019531D+04 2.346590995789D+00 0.000000000000D+00 2.000000000000D+00
   -2.208111474609D+04 1.047303199768D+00 9.313225746155D-10 0.000000000000D+00
 2 21 10 11 15 15  0.0 4.962915554643D-04 0.000000000000D+00 5.400000000000D+04
    1.174745849609D+04 1.169252395630D-01 1.862645149231D-09 0.000000000000D+00
    2.259779101562D+04-1.386966705322D-01-9.313225746155D-10-4.000000000000D+00
   -4.585683593750D+02-3.579298973083D+00-1.862645149231D-09 0.000000000000D+00
22 21 10 11 15 15  0.0-1.382958143950D-04-2.728484105319D-12 5.400000000000D+04
   -1.626571972656D+04 1.125629425049D+00-2.793967723846D-09 0.000000000000D+00
    1.478015917969D+04-1.380672454834D+00-9.313225746155D-10-3.000000000000D+00
    1.285982177734D+04 3.015024185181D+00 0.000000000000D+00 0.000000000000D+00
 1 21 10 11 15 15  0.0 8.653011173010D-05 0.000000000000D+00 5.400000000000D+04
   -2.409985351562D+02-1.172199249268D+00 1.862645149231D-09 0.000000000000D+00
    1.759897949219D+04-2.240301132202D+00-0.000000000000D+00 1.000000000000D+00
   -1.847375244141D+04-2.118657112122D+00 9.313225746155D-10 0.000000000000D+00
23 21 10 11 15 15  0.0-1.618545502424D-05-9.094947017729D-13 5.400000000000D+04
   -9.795376953125D+03-4.047527313232D-01-0.000000000000D+00 0.000000000000D+00
    2.209703222656D+04 1.070125579834D+00-9.313225746155D-10 3.000000000000D+00
   -8.172317871094D+03 3.380407333374D+00 9.313225746155D-10 0.000000000000D+00
24 21 10 11 15 15  0.0 6.226543337107D-05 1.818989403546D-12 5.400000000000D+04
    1.014199218750D+02-1.350804328918D+00 1.862645149231D-09 0.000000000000D+00
    1.659295166016D+04 2.288858413696D+00-0.000000000000D+00 2.000000000000D+00
   -1.936592333984D+04 1.949887275696D+00 9.313225746155D-10 0.000000000000D+00
12 21 10 11 15 15  0.0 2.692099660635D-04 3.637978807092D-12 5.427000000000D+04
   -7.999774902344D+03-2.997863769531D+00-2.793967723846D-09 0.000000000000D+00
    1.029518066406D+04-2.083683013916D-02-9.313225746155D-10-1.000000000000D+00
    2.195948046875D+04-1.082140922546D+00-0.000000000000D+00 0.000000000000D+00
 3 21 10 11 15 15  0.0 4.453770816326D-05 0.000000000000D+00 5.556000000000D+04
    1.541860058594D+04 1.128472328186D+00 0.000000000000D+00 0.000000000000D+00
    1.274359667969D+04 1.848138809204D+00-0.000000000000D+00 5.000000000000D+00
    1.582760644531D+04-2.598331451416D+00-2.793967723846D-09 0.000000000000D+00
 2 21 10 11 15 45  0.0 4.962924867868D-04 0.000000000000D+00 5.580000000000D+04
    1.150741015625D+04-4.138784408569D-01 1.862645149231D-09 0.000000000000D+00
    2.167621630859D+04-8.568916320801D-01-9.313225746155D-10-4.000000000000D+00
   -6.799864746094D+03-3.420595169067D+00-9.313225746155D-10 0.000000000000D+00
 3 21 10 11 15 45  0.0 4.453863948584D-05 0.000000000000D+00 5.580000000000D+04
    1.734031933594D+04 9.625024795532D-01 9.313225746155D-10 0.000000000000D+00
    1.539496679688D+04 1.090037345886D+00-9.313225746155D-10 5.000000000000D+00
    1.059886621094D+04-3.173771858215D+00-2.793967723846D-09 0.000000000000D+00
